ORBCOMM-X               
1 21576U 91050C   24251.19864326  .00001573  00000+0  48542-3 0  9990
2 21576  98.3826 317.0824 0002956 338.7026  21.4040 14.42710501741306
ORBCOMM FM01            
1 23545U 95017A   24251.58588975  .00019460  00000+0  24243-2 0  9996
2 23545  69.9671  55.2785 0003571  14.2411 345.8839 14.82467570570501
ORBCOMM FM02            
1 23546U 95017B   24251.57498848  .00020235  00000+0  25372-2 0  9991
2 23546  69.9680  74.9143 0005235  15.5355 344.5955 14.82182494570142
ORBCOMM FM08            
1 25112U 97084A   24251.52009299  .00006308  00000+0  18887-2 0  9999
2 25112  45.0135 282.6798 0009287 267.5871  92.3916 14.43440192400494
ORBCOMM FM10            
1 25113U 97084B   24251.53581022  .00005640  00000+0  16979-2 0  9998
2 25113  45.0147 284.5707 0006587 248.1543 111.8607 14.43321441575649
ORBCOMM FM11            
1 25114U 97084C   24251.49660420  .00006353  00000+0  19129-2 0  9996
2 25114  45.0133 284.9376 0007391 245.9677 114.0400 14.43167883400605
ORBCOMM FM12            
1 25115U 97084D   24251.52888559  .00006223  00000+0  18767-2 0  9999
2 25115  45.0141 284.5227 0006458 248.4011 111.6152 14.43123211400401
ORBCOMM FM09            
1 25116U 97084E   24251.54322076  .00005341  00000+0  16181-2 0  9997
2 25116  45.0144 285.1780 0007022 234.2577 125.7620 14.43081956400612
